COSMOS 2433 [GLONASS-M] 
1 32275U 07052A   25333.95017507 -.00000018  00000+0  00000+0 0  9991
2 32275  65.6901 322.6356 0005623 251.6280 108.3293  2.13103951140810
COSMOS 2432 [GLONASS-M] 
1 32276U 07052B   25334.09543551 -.00000018  00000+0  00000+0 0  9991
2 32276  65.7059 322.7547 0011217 310.9925 104.9080  2.13103086140848
COSMOS 2434 [GLONASS-M] 
1 32393U 07065A   25334.79629904  .00000098  00000+0  00000+0 0  9996
2 32393  64.3147 198.6065 0004324  70.6228 109.1321  2.13101185139541
COSMOS 2436 [GLONASS-M] 
1 32395U 07065C   25334.08590824  .00000091  00000+0  00000+0 0  9991
2 32395  64.3233 198.7006 0017704   8.5569 119.3435  2.13099987139487
COSMOS 2456 [GLONASS-M] 
1 36111U 09070A   25334.36827578 -.00000008  00000+0  00000+0 0  9998
2 36111  64.8932  77.7610 0002721 298.5848  69.8128  2.13103442124191
COSMOS 2457 [GLONASS-M] 
1 36112U 09070B   25334.71979750 -.00000012  00000+0  00000+0 0  9993
2 36112  64.8786  77.5967 0004980 155.4262 251.9047  2.13100809124202
COSMOS 2460 [GLONASS-M] 
1 36402U 10007C   25334.31982458 -.00000020  00000+0  00000+0 0  9991
2 36402  65.5365 321.1932 0002814 269.4313 190.3420  2.13106071122499
COSMOS 2476 [GLONASS-M] 
1 37867U 11064A   25334.50193492 -.00000006  00000+0  00000+0 0  9998
2 37867  65.1558  79.5857 0023886 233.2678 146.1082  2.13101293109534
